QIANFAN-17              
1 60395U 24140S   25282.81600516  .00000044  00000+0  49518-4 0  9998
2 60395  88.9762 306.0570 0016077  37.5208 322.7062 13.50972842 59504
QIANFAN-18              
1 60396U 24140T   25282.79544539  .00000041  00000+0  45145-4 0  9997
2 60396  88.9754 305.5974 0014836  21.6176 338.5598 13.50974306 58894
QIANFAN-19              
1 61552U 24185A   25282.83563205  .00000580  00000+0  29683-3 0  9993
2 61552  88.9763  85.2617 0008310 138.0887 222.0937 14.14191709 60635
QIANFAN-20              
1 61553U 24185B   25282.83411194  .00000557  00000+0  31510-3 0  9999
2 61553  88.9760  85.5213 0006006 165.9596 194.1755 14.08741472 60496
QIANFAN-21              
1 61554U 24185C   25282.88040025  .00000782  00000+0  34451-3 0  9993
2 61554  88.9679  84.4567 0009830 200.4677 159.6122 14.22469460 60897
QIANFAN-22              
1 61555U 24185D   25282.83862472  .00000222  00000+0  18056-3 0  9999
2 61555  88.9746  86.2456 0006669 173.5697 186.5560 13.86268340 60088
QIANFAN-23              
1 61556U 24185E   25282.83042354  .00000777  00000+0  38550-3 0  9995
2 61556  88.9756  85.1018 0008783 149.4745 210.6956 14.16184490 60701
QIANFAN-24              
1 61557U 24185F   25282.86682171  .00000863  00000+0  37186-3 0  9996
2 61557  88.9740  84.6070 0011057 137.9400 222.2642 14.23675381 60933
