<?xml version="1.0" encoding="UTF-8"?>
<ndm xmlns:xsi="http://www.w3.org/2001/XMLSchema-instance" xsi:noNamespaceSchemaLocation="https://sanaregistry.org/r/ndmxml_unqualified/ndmxml-2.0.0-master-2.0.xsd">
<omm id="CCSDS_OMM_VERS" version="2.0">
<header><CREATION_DATE/><ORIGINATOR/></header><body><segment><metadata><OBJECT_NAME>QIANFAN-17</OBJECT_NAME><OBJECT_ID>2024-140S</OBJECT_ID><CENTER_NAME>EARTH</CENTER_NAME><REF_FRAME>TEME</REF_FRAME><TIME_SYSTEM>UTC</TIME_SYSTEM><MEAN_ELEMENT_THEORY>SGP4</MEAN_ELEMENT_THEORY></metadata><data><meanElements><EPOCH>2025-10-09T19:35:02.845824</EPOCH><MEAN_MOTION>13.50972842</MEAN_MOTION><ECCENTRICITY>.0016077</ECCENTRICITY><INCLINATION>88.9762</INCLINATION><RA_OF_ASC_NODE>306.0570</RA_OF_ASC_NODE><ARG_OF_PERICENTER>37.5208</ARG_OF_PERICENTER><MEAN_ANOMALY>322.7062</MEAN_ANOMALY></meanElements><tleParameters><EPHEMERIS_TYPE>0</EPHEMERIS_TYPE><CLASSIFICATION_TYPE>U</CLASSIFICATION_TYPE><NORAD_CAT_ID>60395</NORAD_CAT_ID><ELEMENT_SET_NO>999</ELEMENT_SET_NO><REV_AT_EPOCH>5950</REV_AT_EPOCH><BSTAR>.49518E-4</BSTAR><MEAN_MOTION_DOT>.44E-6</MEAN_MOTION_DOT><MEAN_MOTION_DDOT>0</MEAN_MOTION_DDOT></tleParameters></data></segment></body></omm>
<omm id="CCSDS_OMM_VERS" version="2.0">
<header><CREATION_DATE/><ORIGINATOR/></header><body><segment><metadata><OBJECT_NAME>QIANFAN-18</OBJECT_NAME><OBJECT_ID>2024-140T</OBJECT_ID><CENTER_NAME>EARTH</CENTER_NAME><REF_FRAME>TEME</REF_FRAME><TIME_SYSTEM>UTC</TIME_SYSTEM><MEAN_ELEMENT_THEORY>SGP4</MEAN_ELEMENT_THEORY></metadata><data><meanElements><EPOCH>2025-10-09T19:05:26.481696</EPOCH><MEAN_MOTION>13.50974306</MEAN_MOTION><ECCENTRICITY>.0014836</ECCENTRICITY><INCLINATION>88.9754</INCLINATION><RA_OF_ASC_NODE>305.5974</RA_OF_ASC_NODE><ARG_OF_PERICENTER>21.6176</ARG_OF_PERICENTER><MEAN_ANOMALY>338.5598</MEAN_ANOMALY></meanElements><tleParameters><EPHEMERIS_TYPE>0</EPHEMERIS_TYPE><CLASSIFICATION_TYPE>U</CLASSIFICATION_TYPE><NORAD_CAT_ID>60396</NORAD_CAT_ID><ELEMENT_SET_NO>999</ELEMENT_SET_NO><REV_AT_EPOCH>5889</REV_AT_EPOCH><BSTAR>.45145E-4</BSTAR><MEAN_MOTION_DOT>.41E-6</MEAN_MOTION_DOT><MEAN_MOTION_DDOT>0</MEAN_MOTION_DDOT></tleParameters></data></segment></body></omm>
<omm id="CCSDS_OMM_VERS" version="2.0">
<header><CREATION_DATE/><ORIGINATOR/></header><body><segment><metadata><OBJECT_NAME>QIANFAN-19</OBJECT_NAME><OBJECT_ID>2024-185A</OBJECT_ID><CENTER_NAME>EARTH</CENTER_NAME><REF_FRAME>TEME</REF_FRAME><TIME_SYSTEM>UTC</TIME_SYSTEM><MEAN_ELEMENT_THEORY>SGP4</MEAN_ELEMENT_THEORY></metadata><data><meanElements><EPOCH>2025-10-09T20:03:18.609120</EPOCH><MEAN_MOTION>14.14191709</MEAN_MOTION><ECCENTRICITY>.000831</ECCENTRICITY><INCLINATION>88.9763</INCLINATION><RA_OF_ASC_NODE>85.2617</RA_OF_ASC_NODE><ARG_OF_PERICENTER>138.0887</ARG_OF_PERICENTER><MEAN_ANOMALY>222.0937</MEAN_ANOMALY></meanElements><tleParameters><EPHEMERIS_TYPE>0</EPHEMERIS_TYPE><CLASSIFICATION_TYPE>U</CLASSIFICATION_TYPE><NORAD_CAT_ID>61552</NORAD_CAT_ID><ELEMENT_SET_NO>999</ELEMENT_SET_NO><REV_AT_EPOCH>6063</REV_AT_EPOCH><BSTAR>.29683E-3</BSTAR><MEAN_MOTION_DOT>.58E-5</MEAN_MOTION_DOT><MEAN_MOTION_DDOT>0</MEAN_MOTION_DDOT></tleParameters></data></segment></body></omm>
<omm id="CCSDS_OMM_VERS" version="2.0">
<header><CREATION_DATE/><ORIGINATOR/></header><body><segment><metadata><OBJECT_NAME>QIANFAN-20</OBJECT_NAME><OBJECT_ID>2024-185B</OBJECT_ID><CENTER_NAME>EARTH</CENTER_NAME><REF_FRAME>TEME</REF_FRAME><TIME_SYSTEM>UTC</TIME_SYSTEM><MEAN_ELEMENT_THEORY>SGP4</MEAN_ELEMENT_THEORY></metadata><data><meanElements><EPOCH>2025-10-09T20:01:07.271616</EPOCH><MEAN_MOTION>14.08741472</MEAN_MOTION><ECCENTRICITY>.0006006</ECCENTRICITY><INCLINATION>88.9760</INCLINATION><RA_OF_ASC_NODE>85.5213</RA_OF_ASC_NODE><ARG_OF_PERICENTER>165.9596</ARG_OF_PERICENTER><MEAN_ANOMALY>194.1755</MEAN_ANOMALY></meanElements><tleParameters><EPHEMERIS_TYPE>0</EPHEMERIS_TYPE><CLASSIFICATION_TYPE>U</CLASSIFICATION_TYPE><NORAD_CAT_ID>61553</NORAD_CAT_ID><ELEMENT_SET_NO>999</ELEMENT_SET_NO><REV_AT_EPOCH>6049</REV_AT_EPOCH><BSTAR>.3151E-3</BSTAR><MEAN_MOTION_DOT>.557E-5</MEAN_MOTION_DOT><MEAN_MOTION_DDOT>0</MEAN_MOTION_DDOT></tleParameters></data></segment></body></omm>
<omm id="CCSDS_OMM_VERS" version="2.0">
<header><CREATION_DATE/><ORIGINATOR/></header><body><segment><metadata><OBJECT_NAME>QIANFAN-21</OBJECT_NAME><OBJECT_ID>2024-185C</OBJECT_ID><CENTER_NAME>EARTH</CENTER_NAME><REF_FRAME>TEME</REF_FRAME><TIME_SYSTEM>UTC</TIME_SYSTEM><MEAN_ELEMENT_THEORY>SGP4</MEAN_ELEMENT_THEORY></metadata><data><meanElements><EPOCH>2025-10-09T21:07:46.581600</EPOCH><MEAN_MOTION>14.22469460</MEAN_MOTION><ECCENTRICITY>.000983</ECCENTRICITY><INCLINATION>88.9679</INCLINATION><RA_OF_ASC_NODE>84.4567</RA_OF_ASC_NODE><ARG_OF_PERICENTER>200.4677</ARG_OF_PERICENTER><MEAN_ANOMALY>159.6122</MEAN_ANOMALY></meanElements><tleParameters><EPHEMERIS_TYPE>0</EPHEMERIS_TYPE><CLASSIFICATION_TYPE>U</CLASSIFICATION_TYPE><NORAD_CAT_ID>61554</NORAD_CAT_ID><ELEMENT_SET_NO>999</ELEMENT_SET_NO><REV_AT_EPOCH>6089</REV_AT_EPOCH><BSTAR>.34451E-3</BSTAR><MEAN_MOTION_DOT>.782E-5</MEAN_MOTION_DOT><MEAN_MOTION_DDOT>0</MEAN_MOTION_DDOT></tleParameters></data></segment></body></omm>
<omm id="CCSDS_OMM_VERS" version="2.0">
<header><CREATION_DATE/><ORIGINATOR/></header><body><segment><metadata><OBJECT_NAME>QIANFAN-22</OBJECT_NAME><OBJECT_ID>2024-185D</OBJECT_ID><CENTER_NAME>EARTH</CENTER_NAME><REF_FRAME>TEME</REF_FRAME><TIME_SYSTEM>UTC</TIME_SYSTEM><MEAN_ELEMENT_THEORY>SGP4</MEAN_ELEMENT_THEORY></metadata><data><meanElements><EPOCH>2025-10-09T20:07:37.175808</EPOCH><MEAN_MOTION>13.86268340</MEAN_MOTION><ECCENTRICITY>.0006669</ECCENTRICITY><INCLINATION>88.9746</INCLINATION><RA_OF_ASC_NODE>86.2456</RA_OF_ASC_NODE><ARG_OF_PERICENTER>173.5697</ARG_OF_PERICENTER><MEAN_ANOMALY>186.5560</MEAN_ANOMALY></meanElements><tleParameters><EPHEMERIS_TYPE>0</EPHEMERIS_TYPE><CLASSIFICATION_TYPE>U</CLASSIFICATION_TYPE><NORAD_CAT_ID>61555</NORAD_CAT_ID><ELEMENT_SET_NO>999</ELEMENT_SET_NO><REV_AT_EPOCH>6008</REV_AT_EPOCH><BSTAR>.18056E-3</BSTAR><MEAN_MOTION_DOT>.222E-5</MEAN_MOTION_DOT><MEAN_MOTION_DDOT>0</MEAN_MOTION_DDOT></tleParameters></data></segment></body></omm>
<omm id="CCSDS_OMM_VERS" version="2.0">
<header><CREATION_DATE/><ORIGINATOR/></header><body><segment><metadata><OBJECT_NAME>QIANFAN-23</OBJECT_NAME><OBJECT_ID>2024-185E</OBJECT_ID><CENTER_NAME>EARTH</CENTER_NAME><REF_FRAME>TEME</REF_FRAME><TIME_SYSTEM>UTC</TIME_SYSTEM><MEAN_ELEMENT_THEORY>SGP4</MEAN_ELEMENT_THEORY></metadata><data><meanElements><EPOCH>2025-10-09T19:55:48.593856</EPOCH><MEAN_MOTION>14.16184490</MEAN_MOTION><ECCENTRICITY>.0008783</ECCENTRICITY><INCLINATION>88.9756</INCLINATION><RA_OF_ASC_NODE>85.1018</RA_OF_ASC_NODE><ARG_OF_PERICENTER>149.4745</ARG_OF_PERICENTER><MEAN_ANOMALY>210.6956</MEAN_ANOMALY></meanElements><tleParameters><EPHEMERIS_TYPE>0</EPHEMERIS_TYPE><CLASSIFICATION_TYPE>U</CLASSIFICATION_TYPE><NORAD_CAT_ID>61556</NORAD_CAT_ID><ELEMENT_SET_NO>999</ELEMENT_SET_NO><REV_AT_EPOCH>6070</REV_AT_EPOCH><BSTAR>.3855E-3</BSTAR><MEAN_MOTION_DOT>.777E-5</MEAN_MOTION_DOT><MEAN_MOTION_DDOT>0</MEAN_MOTION_DDOT></tleParameters></data></segment></body></omm>
<omm id="CCSDS_OMM_VERS" version="2.0">
<header><CREATION_DATE/><ORIGINATOR/></header><body><segment><metadata><OBJECT_NAME>QIANFAN-24</OBJECT_NAME><OBJECT_ID>2024-185F</OBJECT_ID><CENTER_NAME>EARTH</CENTER_NAME><REF_FRAME>TEME</REF_FRAME><TIME_SYSTEM>UTC</TIME_SYSTEM><MEAN_ELEMENT_THEORY>SGP4</MEAN_ELEMENT_THEORY></metadata><data><meanElements><EPOCH>2025-10-09T20:48:13.395744</EPOCH><MEAN_MOTION>14.23675381</MEAN_MOTION><ECCENTRICITY>.0011057</ECCENTRICITY><INCLINATION>88.9740</INCLINATION><RA_OF_ASC_NODE>84.6070</RA_OF_ASC_NODE><ARG_OF_PERICENTER>137.9400</ARG_OF_PERICENTER><MEAN_ANOMALY>222.2642</MEAN_ANOMALY></meanElements><tleParameters><EPHEMERIS_TYPE>0</EPHEMERIS_TYPE><CLASSIFICATION_TYPE>U</CLASSIFICATION_TYPE><NORAD_CAT_ID>61557</NORAD_CAT_ID><ELEMENT_SET_NO>999</ELEMENT_SET_NO><REV_AT_EPOCH>6093</REV_AT_EPOCH><BSTAR>.37186E-3</BSTAR><MEAN_MOTION_DOT>.863E-5</MEAN_MOTION_DOT><MEAN_MOTION_DDOT>0</MEAN_MOTION_DDOT></tleParameters></data></segment></body></omm>

</ndm>
